GSAT-18                 
1 41793U 16060A   26158.43153741 -.00000062  00000+0  00000+0 0  9994
2 41793   0.0397 115.3280 0005793 314.9007  54.9553  1.00271393 35435
SKY MUSTER 2 (NBN1B)    
1 41794U 16060B   26158.52197777 -.00000229  00000+0  00000+0 0  9997
2 41794   0.0142 303.6911 0001569 128.9914 155.9642  1.00272999 35427
HIMAWARI-9              
1 41836U 16064A   26158.52197777 -.00000260  00000+0  00000+0 0  9993
2 41836   0.0354 176.5797 0000881 296.2490 111.7787  1.00273268 35118
SHIJIAN-17 (SJ-17)      
1 41838U 16065A   26158.44742258  .00000011  00000+0  00000+0 0  9990
2 41838   5.7273  72.7214 0001977  23.0447 211.5929  0.99853712 35109
GOES 16                 
1 41866U 16071A   26158.46738235 -.00000076  00000+0  00000+0 0  9992
2 41866   0.3149  85.6261 0000508 317.7505 276.0886  1.00270840 35000
TIANLIAN 1-04           
1 41869U 16072A   26158.54280769  .00000045  00000+0  00000+0 0  9994
2 41869   0.8443  82.9545 0041842  89.7667  95.4621  1.00269305 35207
WGS F8 (USA 272)        
1 41879U 16075A   26158.33169956 -.00000188  00000+0  00000+0 0  9998
2 41879   0.0110  76.7831 0000158 263.0063 185.1796  1.00269884 34720
FENGYUN 4A              
1 41882U 16077A   26158.51272097 -.00000342  00000+0  00000+0 0  9997
2 41882   2.2976  80.3870 0008224 151.5097 332.3645  1.00274668 34839
ECHOSTAR 19             
1 41893U 16079A   26158.32625840 -.00000124  00000+0  00000+0 0  9996
2 41893   0.0177   0.2276 0001396  84.0179 191.8554  1.00271514 34604
JCSAT-110A (JCSAT-15)   
1 41903U 16082A   26158.34836683 -.00000336  00000+0  00000+0 0  9998
2 41903   0.0176 348.1690 0000674 105.7083  37.3520  1.00269993 34663
STAR ONE D1             
1 41904U 16082B   26158.32894508 -.00000196  00000+0  00000+0 0  9991
2 41904   0.0154  45.9307 0002125  43.7579 200.4437  1.00269496 34670
TJS-2                   
1 41911U 17001A   26158.43006405  .00000008  00000+0  00000+0 0  9995
2 41911   0.8073  85.4650 0000697  19.8000  11.9337  1.00272595 34624
SBIRS GEO-4 (USA 273)   
1 41937U 17004A   26158.49208248  .00000137  00000+0  00000+0 0  9994
2 41937   2.2237  43.0054 0002202  28.7542  22.1907  1.00271111 34509
HISPASAT 36W-1          
1 41942U 17006A   26158.40972184 -.00000229  00000+0  00000+0 0  9993
2 41942   0.0250 204.5528 0001346 243.5935 279.1752  1.00277541 34142
TELKOM 3S               
1 41944U 17007A   26158.44029078 -.00000348  00000+0  00000+0 0  9997
2 41944   0.0185 301.4147 0002343 137.4877  93.4645  1.00270963 34047
INTELSAT 32E (IS-32E)   
1 41945U 17007B   26158.47960242 -.00000255  00000+0  00000+0 0  9995
2 41945   0.0013 358.2728 0000960 340.2847  46.8100  1.00266354 34123
ECHOSTAR 23             
1 42070U 17014A   26158.46642903  .00000000  00000+0  00000+0 0  9990
2 42070   0.0179 343.9352 0001743  97.2622 232.6885  1.00268374 33825
WGS F9 (USA 275)        
1 42075U 17016A   26158.41448853 -.00000082  00000+0  00000+0 0  9991
2 42075   0.0100 280.1978 0000464 172.7079 300.1398  1.00271967 33792
SES-10                  
1 42432U 17017A   26158.33232509 -.00000258  00000+0  00000+0 0  9994
2 42432   0.0200  30.2419 0002921  57.4558 220.7893  1.00271427 33658
CHINASAT 16 (SJ-13)     
1 42662U 17018A   26158.69237051 -.00000337  00000+0  00000+0 0  9994
2 42662   0.0974  91.4359 0003963 138.2362  26.2183  1.00274073 33652
KOREASAT 7              
1 42691U 17023A   26158.43985742 -.00000347  00000+0  00000+0 0  9992
2 42691   0.0190 343.2122 0000542  66.9584 119.9083  1.00272364 33271
SGDC                    
1 42692U 17023B   26157.49991625 -.00000237  00000+0  00000+0 0  9993
2 42692   0.0213  51.3876 0002927  34.5594 274.0931  1.00274102 33291
GSAT-9                  
1 42695U 17024A   26158.43621742 -.00000272  00000+0  00000+0 0  9991
2 42695   0.0131 296.8653 0002529 134.8888  78.4638  1.00273181 33207
INMARSAT 5-F4           
1 42698U 17025A   26158.42798405  .00000089  00000+0  00000+0 0  9990
2 42698   0.0176 353.5428 0000254 202.4116 270.4340  1.00275908 33189
SES-15                  
1 42709U 17026A   26158.46261566  .00000074  00000+0  00000+0 0  9995
2 42709   0.0209 327.6829 0000634  91.3676 234.2137  1.00270402  7338
QZS-2 (MICHIBIKI-2)     
1 42738U 17028A   26158.29072590 -.00000151  00000+0  00000+0 0  9994
2 42738  39.4423 243.3005 0760597 269.1530 349.1736  1.00286598  7524
VIASAT-2                
1 42740U 17029A   26158.33171844 -.00000251  00000+0  00000+0 0  9996
2 42740   0.0179 291.0744 0000302 148.4673 225.7314  1.00271397 33102
EUTELSAT 172B           
1 42741U 17029B   26158.45091561  .00000009  00000+0  00000+0 0  9997
2 42741   0.0376 149.2831 0000087   0.3196  80.5848  1.00271300 33641
GSAT-19                 
1 42747U 17031A   26158.21245668  .00000140  00000+0  00000+0 0  9995
2 42747   0.1068  90.9603 0007005 349.5286 299.4772  1.00270994 33049
ECHOSTAR 21             
1 42749U 17032A   26158.27630051  .00000078  00000+0  00000+0 0  9998
2 42749   1.7719 355.0306 0002360  85.3243 285.0667  1.00270814 33004
BULGARIASAT-1           
1 42801U 17038A   26158.27465382 -.00000016  00000+0  00000+0 0  9999
2 42801   0.0249 278.4284 0011062  74.3816   3.6025  1.00043693 32744
HELLAS-SAT 3            
1 42814U 17040A   26158.49590542  .00000167  00000+0  00000+0 0  9993
2 42814   0.0546  53.1190 0004736 357.0442  63.2642  1.00273246 32711
