OBJECT_NAME,OBJECT_ID,EPOCH,MEAN_MOTION,ECCENTRICITY,INCLINATION,RA_OF_ASC_NODE,ARG_OF_PERICENTER,MEAN_ANOMALY,EPHEMERIS_TYPE,CLASSIFICATION_TYPE,NORAD_CAT_ID,ELEMENT_SET_NO,REV_AT_EPOCH,BSTAR,MEAN_MOTION_DOT,MEAN_MOTION_DDOT
GSAT-18,2016-060A,2026-06-07T10:21:24.832224,1.00271393,.0005793,0.0397,115.3280,314.9007,54.9553,0,U,41793,999,3543,0,-.62E-6,0
SKY MUSTER 2 (NBN1B),2016-060B,2026-06-07T12:31:38.879328,1.00272999,.0001569,0.0142,303.6911,128.9914,155.9642,0,U,41794,999,3542,0,-.229E-5,0
HIMAWARI-9,2016-064A,2026-06-07T12:31:38.879328,1.00273268,.0000881,0.0354,176.5797,296.2490,111.7787,0,U,41836,999,3511,0,-.26E-5,0
SHIJIAN-17 (SJ-17),2016-065A,2026-06-07T10:44:17.310912,0.99853712,.0001977,5.7273,72.7214,23.0447,211.5929,0,U,41838,999,3510,0,.11E-6,0
GOES 16,2016-071A,2026-06-07T11:13:01.835040,1.00270840,.0000508,0.3149,85.6261,317.7505,276.0886,0,U,41866,999,3500,0,-.76E-6,0
TIANLIAN 1-04,2016-072A,2026-06-07T13:01:38.584416,1.00269305,.0041842,0.8443,82.9545,89.7667,95.4621,0,U,41869,999,3520,0,.45E-6,0
WGS F8 (USA 272),2016-075A,2026-06-07T07:57:38.841984,1.00269884,.0000158,0.0110,76.7831,263.0063,185.1796,0,U,41879,999,3472,0,-.188E-5,0
FENGYUN 4A,2016-077A,2026-06-07T12:18:19.091808,1.00274668,.0008224,2.2976,80.3870,151.5097,332.3645,0,U,41882,999,3483,0,-.342E-5,0
ECHOSTAR 19,2016-079A,2026-06-07T07:49:48.725760,1.00271514,.0001396,0.0177,0.2276,84.0179,191.8554,0,U,41893,999,3460,0,-.124E-5,0
JCSAT-110A (JCSAT-15),2016-082A,2026-06-07T08:21:38.894112,1.00269993,.0000674,0.0176,348.1690,105.7083,37.3520,0,U,41903,999,3466,0,-.336E-5,0
STAR ONE D1,2016-082B,2026-06-07T07:53:40.854912,1.00269496,.0002125,0.0154,45.9307,43.7579,200.4437,0,U,41904,999,3467,0,-.196E-5,0
TJS-2,2017-001A,2026-06-07T10:19:17.533920,1.00272595,.0000697,0.8073,85.4650,19.8000,11.9337,0,U,41911,999,3462,0,.8E-7,0
SBIRS GEO-4 (USA 273),2017-004A,2026-06-07T11:48:35.926272,1.00271111,.0002202,2.2237,43.0054,28.7542,22.1907,0,U,41937,999,3450,0,.137E-5,0
HISPASAT 36W-1,2017-006A,2026-06-07T09:49:59.966976,1.00277541,.0001346,0.0250,204.5528,243.5935,279.1752,0,U,41942,999,3414,0,-.229E-5,0
TELKOM 3S,2017-007A,2026-06-07T10:34:01.123392,1.00270963,.0002343,0.0185,301.4147,137.4877,93.4645,0,U,41944,999,3404,0,-.348E-5,0
INTELSAT 32E (IS-32E),2017-007B,2026-06-07T11:30:37.649088,1.00266354,.000096,0.0013,358.2728,340.2847,46.8100,0,U,41945,999,3412,0,-.255E-5,0
ECHOSTAR 23,2017-014A,2026-06-07T11:11:39.468192,1.00268374,.0001743,0.0179,343.9352,97.2622,232.6885,0,U,42070,999,3382,0,0,0
WGS F9 (USA 275),2017-016A,2026-06-07T09:56:51.808992,1.00271967,.0000464,0.0100,280.1978,172.7079,300.1398,0,U,42075,999,3379,0,-.82E-6,0
SES-10,2017-017A,2026-06-07T07:58:32.887776,1.00271427,.0002921,0.0200,30.2419,57.4558,220.7893,0,U,42432,999,3365,0,-.258E-5,0
CHINASAT 16 (SJ-13),2017-018A,2026-06-07T16:37:00.812064,1.00274073,.0003963,0.0974,91.4359,138.2362,26.2183,0,U,42662,999,3365,0,-.337E-5,0
KOREASAT 7,2017-023A,2026-06-07T10:33:23.681088,1.00272364,.0000542,0.0190,343.2122,66.9584,119.9083,0,U,42691,999,3327,0,-.347E-5,0
SGDC,2017-023B,2026-06-06T11:59:52.764000,1.00274102,.0002927,0.0213,51.3876,34.5594,274.0931,0,U,42692,999,3329,0,-.237E-5,0
GSAT-9,2017-024A,2026-06-07T10:28:09.185088,1.00273181,.0002529,0.0131,296.8653,134.8888,78.4638,0,U,42695,999,3320,0,-.272E-5,0
INMARSAT 5-F4,2017-025A,2026-06-07T10:16:17.821920,1.00275908,.0000254,0.0176,353.5428,202.4116,270.4340,0,U,42698,999,3318,0,.89E-6,0
SES-15,2017-026A,2026-06-07T11:06:09.993024,1.00270402,.0000634,0.0209,327.6829,91.3676,234.2137,0,U,42709,999,733,0,.74E-6,0
QZS-2 (MICHIBIKI-2),2017-028A,2026-06-07T06:58:38.717760,1.00286598,.0760597,39.4423,243.3005,269.1530,349.1736,0,U,42738,999,752,0,-.151E-5,0
VIASAT-2,2017-029A,2026-06-07T07:57:40.473216,1.00271397,.0000302,0.0179,291.0744,148.4673,225.7314,0,U,42740,999,3310,0,-.251E-5,0
EUTELSAT 172B,2017-029B,2026-06-07T10:49:19.108704,1.00271300,.0000087,0.0376,149.2831,0.3196,80.5848,0,U,42741,999,3364,0,.9E-7,0
GSAT-19,2017-031A,2026-06-07T05:05:56.257152,1.00270994,.0007005,0.1068,90.9603,349.5286,299.4772,0,U,42747,999,3304,0,.14E-5,0
ECHOSTAR 21,2017-032A,2026-06-07T06:37:52.364064,1.00270814,.000236,1.7719,355.0306,85.3243,285.0667,0,U,42749,999,3300,0,.78E-6,0
BULGARIASAT-1,2017-038A,2026-06-07T06:35:30.090048,1.00043693,.0011062,0.0249,278.4284,74.3816,3.6025,0,U,42801,999,3274,0,-.16E-6,0
HELLAS-SAT 3,2017-040A,2026-06-07T11:54:06.228288,1.00273246,.0004736,0.0546,53.1190,357.0442,63.2642,0,U,42814,999,3271,0,.167E-5,0
